IRIDIUM 126             
1 42809U 17039G   23309.64554232  .00000077  00000+0  20326-4 0  9991
2 42809  86.4014  32.5493 0001772  93.2304 266.9095 14.34218016333132
IRIDIUM 124             
1 42810U 17039H   23309.57473373  .00000709  00000+0  20481-3 0  9994
2 42810  86.4481 329.3573 0002445  94.8624 265.2856 14.43276511337425
IRIDIUM 128             
1 42811U 17039J   23309.84558171  .00000840  00000+0  29282-3 0  9999
2 42811  86.3972  63.9863 0001903  96.8289 263.3123 14.34219002333198
IRIDIUM 121             
1 42812U 17039K   23309.73433411  .00001039  00000+0  36398-3 0  9994
2 42812  86.4010  32.5336 0001974  89.1356 271.0066 14.34220344333023
IRIDIUM 133             
1 42955U 17061A   23309.80752646  .00000723  00000+0  25117-3 0  9995
2 42955  86.3973  64.0967 0001762  89.5447 270.5950 14.34221974317981
IRIDIUM 100             
1 42956U 17061B   23309.80118720  .00000960  00000+0  33579-3 0  9999
2 42956  86.3972  64.0402 0002014  94.1947 265.9479 14.34219583317980
IRIDIUM 122             
1 42957U 17061C   23309.69970629  .00000013  00000+0 -23504-5 0  9990
2 42957  86.3972  64.0808 0001837 101.1456 258.9947 14.34217190317970
IRIDIUM 129             
1 42958U 17061D   23310.07391440  .00000945  00000+0  33033-3 0  9992
2 42958  86.3974  63.9812 0001907  96.9723 263.1690 14.34221253318049
